STARLINK-2022           
1 47643U 21012Z   24014.13868171  .00022219  00000+0  15054-2 0  9998
2 47643  53.0549 338.0979 0001502  78.9351 281.1807 15.06410840161343
